{
    "satellites": [
        {
            "name": "starlink238",
            "title": "Starlink-238 (G12-16)",
            "tle": [
                "1 63285C 25053W   25085.83243056 -.01151400  00000+0 -60204-2 0   853",
                "2 63285  43.0007  53.9647 0001186 279.6176 136.3657 15.81010981    14"
            ],
            "stdMag": 5,
            "noradId": "63285",
            "tleUrl": "http://celestrak.org/NORAD/elements/supplemental/sup-gp.php?FILE=starlink&FORMAT=tle",
            "launchDate": "2025-03-15T11:35:00.000Z",
            "active": false,
            "batch": [
                {
                    "noradId": "48403",
                    "tle": [
                        "1 48403C 21038BC  25082.48937500  .07581000  00000+0  26348-2 0   824",
                        "2 48403  53.0357  97.2997 0003421 257.5053 156.0947 16.24456849    16"
                    ]
                }
            ]
        },
        {
            "name": "starlink237",
            "title": "Starlink-237 (G12-21)",
            "tle": [
                "1 63194C 25048M   25085.80256944 -.00978850  00000+0 -35811-2 0   854",
                "2 63194  43.0003 261.5207 0001764 263.6481 165.4893 15.88338344    10"
            ],
            "stdMag": 5,
            "noradId": "63194",
            "tleUrl": "http://celestrak.org/NORAD/elements/supplemental/sup-gp.php?FILE=starlink&FORMAT=tle",
            "launchDate": "2025-03-11T04:14:20.000Z",
            "active": false,
            "batch": [
                {
                    "noradId": "63189",
                    "tle": [
                        "1 63189C 25048G   25085.81020833 -.00985130  00000+0 -36328-2 0   858",
                        "2 63189  43.0005 261.4819 0001900 270.9412 198.5973 15.88183267    19"
                    ]
                },
                {
                    "noradId": "63188",
                    "tle": [
                        "1 63188C 25048F   25085.80951389 -.00987570  00000+0 -36811-2 0   852",
                        "2 63188  43.0006 261.4997 0001643 257.4289 202.8836 15.87969263    16"
                    ]
                },
                {
                    "noradId": "63190",
                    "tle": [
                        "1 63190C 25048H   25085.80326389 -.00985200  00000+0 -36496-2 0   858",
                        "2 63190  43.0005 261.5312 0001760 260.3688 166.8520 15.88091816    16"
                    ]
                },
                {
                    "noradId": "63187",
                    "tle": [
                        "1 63187C 25048E   25085.80881944 -.00992210  00000+0 -37054-2 0   857",
                        "2 63187  43.0005 261.5069 0001815 264.8223 190.2440 15.87935071    17"
                    ]
                },
                {
                    "noradId": "63186",
                    "tle": [
                        "1 63186C 25048D   25085.80326389 -.00991980  00000+0 -37229-2 0   850",
                        "2 63186  43.0007 261.5494 0001734 259.4560 160.6241 15.87834898    19"
                    ]
                },
                {
                    "noradId": "63191",
                    "tle": [
                        "1 63191C 25048J   25085.80604167 -.00967310  00000+0 -34557-2 0   850",
                        "2 63191  43.0002 261.4676 0001795 265.9430 195.2851 15.88805695    11"
                    ]
                },
                {
                    "noradId": "63185",
                    "tle": [
                        "1 63185C 25048C   25085.80395833 -.00996380  00000+0 -37722-2 0   856",
                        "2 63185  43.0008 261.5554 0001950 261.2299 158.8076 15.87660650    14"
                    ]
                },
                {
                    "noradId": "63192",
                    "tle": [
                        "1 63192C 25048K   25085.81020833 -.00977070  00000+0 -35660-2 0   854",
                        "2 63192  43.0004 261.4689 0001802 266.9581 207.6585 15.88384806    13"
                    ]
                },
                {
                    "noradId": "63184",
                    "tle": [
                        "1 63184C 25048B   25085.80812500 -.01001100  00000+0 -38203-2 0   853",
                        "2 63184  43.0009 261.5388 0001753 266.0774 174.2915 15.87505551    13"
                    ]
                },
                {
                    "noradId": "63195",
                    "tle": [
                        "1 63195C 25048N   25085.80534722 -.00968470  00000+0 -34868-2 0   856",
                        "2 63195  43.0000 261.4819 0001861 264.7868 188.4855 15.88650572    18"
                    ]
                },
                {
                    "noradId": "63194",
                    "tle": [
                        "1 63194C 25048M   25085.80256944 -.00978850  00000+0 -35811-2 0   854",
                        "2 63194  43.0003 261.5207 0001764 263.6481 165.4893 15.88338344    10"
                    ]
                },
                {
                    "noradId": "63183",
                    "tle": [
                        "1 63183C 25048A   25085.80812500 -.01002600  00000+0 -38429-2 0   858",
                        "2 63183  43.0010 261.5457 0001797 264.7749 172.8901 15.87415788    17"
                    ]
                },
                {
                    "noradId": "63195",
                    "tle": [
                        "1 63195C 25048N   25085.80534722 -.00968470  00000+0 -34868-2 0   856",
                        "2 63195  43.0000 261.4819 0001861 264.7868 188.4855 15.88650572    18"
                    ]
                },
                {
                    "noradId": "63196",
                    "tle": [
                        "1 63196C 25048P   25085.83034722 -.01239000  00000+0 -51485-2 0   850",
                        "2 63196  42.9994 261.3237 0001781 267.2107 330.2228 15.85991624    11"
                    ]
                },
                {
                    "noradId": "63198",
                    "tle": [
                        "1 63198C 25048R   25085.82895833 -.01072200  00000+0 -37101-2 0   855",
                        "2 63198  42.9992 261.2264 0002039 269.6569   1.7306 15.89548783    10"
                    ]
                },
                {
                    "noradId": "63198",
                    "tle": [
                        "1 63198C 25048R   25085.82895833 -.01072200  00000+0 -37101-2 0   855",
                        "2 63198  42.9992 261.2264 0002039 269.6569   1.7306 15.89548783    10"
                    ]
                },
                {
                    "noradId": "63203",
                    "tle": [
                        "1 63203C 25048W   25085.82826389 -.01103200  00000+0 -37806-2 0   859",
                        "2 63203  42.9995 261.1968 0002042 270.6861  10.4157 15.89773389    14"
                    ]
                },
                {
                    "noradId": "63202",
                    "tle": [
                        "1 63202C 25048V   25085.83104167 -.01088600  00000+0 -37433-2 0   854",
                        "2 63202  42.9995 261.1898 0002073 269.5290  23.2988 15.89690780    19"
                    ]
                },
                {
                    "noradId": "63200",
                    "tle": [
                        "1 63200C 25048T   25085.83104167 -.01074600  00000+0 -37074-2 0   858",
                        "2 63200  42.9992 261.2037 0002034 269.9738  17.2402 15.89610712    19"
                    ]
                },
                {
                    "noradId": "63199",
                    "tle": [
                        "1 63199C 25048S   25085.82548611 -.01097000  00000+0 -37641-2 0   859",
                        "2 63199  42.9993 261.2180 0002085 269.0632 354.1614 15.89740419    12"
                    ]
                },
                {
                    "noradId": "63203",
                    "tle": [
                        "1 63203C 25048W   25085.82826389 -.01103200  00000+0 -37806-2 0   859",
                        "2 63203  42.9995 261.1968 0002042 270.6861  10.4157 15.89773389    14"
                    ]
                }
            ]
        }
    ],
    "config": {}
}